     2.10           N: GPS NAV DATA                         RINEX VERSION / TYPE
Convert v1.8.0                          07-Jun-16 18:55     PGM / RUN BY / DATE 
Ionosphere parameters A0-A3 unknown                         COMMENT             
Ionosphere parameters B0-B3 unknown                         COMMENT             
Delta-UTC unknown                                           COMMENT             
Leap Seconds unknown                                        COMMENT             
                                                            END OF HEADER       
05 16 04 02 14 00 00.0 -.132235698402D-03  .318323145621D-11  .000000000000D+00
     .200000000000D+01  .216562500000D+02  .477805616808D-08 -.227147706075D+01
     .114925205708D-05  .456340482924D-02  .101905316114D-04  .515376257133D+04
     .568800000000D+06 -.130385160446D-07 -.129209685096D+00  .204890966415D-07
     .946765887799D+00  .176531250000D+03  .466161663539D+00 -.813962476233D-08
     .382158775590D-09  .100000000000D+01  .189000000000D+04  .000000000000D+00
     .000000000000D+00  .000000000000D+00 -.107102096081D-07  .200000000000D+01
     .565206000000D+06  .000000000000D+00                                      
02 16 04 02 14 00 00.0  .598402228206D-03 -.568434188608D-12  .000000000000D+00
     .200000000000D+01 -.890312500000D+02  .501092301077D-08  .151794500551D+01
    -.451877713203D-05  .156180759659D-01  .937469303608D-05  .515375188446D+04
     .568800000000D+06  .372529029846D-08 -.120359950307D+01  .251457095146D-06
     .942548814313D+00  .191656250000D+03 -.213822082283D+01 -.859857245077D-08
    -.226795161215D-09  .100000000000D+01  .189000000000D+04  .000000000000D+00
     .000000000000D+00  .000000000000D+00 -.204890966415D-07  .200000000000D+01
     .565206000000D+06  .000000000000D+00                                      
09 16 04 02 14 00 00.0  .102282967418D-03  .750333128963D-11  .000000000000D+00
     .200000000000D+01  .110625000000D+02  .494520598768D-08  .308377567778D+01
     .644475221634D-06  .650001224130D-03  .555254518986D-05  .515360179710D+04
     .568800000000D+06 -.130385160446D-07  .921654266988D+00  .931322574615D-08
     .955407028903D+00  .267875000000D+03  .203863712039D+01 -.834106172442D-08
     .396445084958D-10  .100000000000D+01  .189000000000D+04  .000000000000D+00
     .000000000000D+00  .000000000000D+00  .139698386192D-08  .200000000000D+01
     .565206000000D+06  .000000000000D+00                                      
29 16 04 02 14 00 00.0  .656579155475D-03  .454747350886D-12  .000000000000D+00
     .200000000000D+01 -.221875000000D+02  .443768484739D-08 -.590160283756D+00
    -.135041773319D-05  .105563562829D-02  .342912971973D-05  .515359129524D+04
     .568800000000D+06 -.242143869400D-07 -.215810921460D+01  .782310962677D-07
     .976620152972D+00  .320250000000D+03 -.436622456792D+00 -.827284459718D-08
    -.130005415247D-09  .000000000000D+00  .189000000000D+04  .000000000000D+00
     .000000000000D+00  .000000000000D+00 -.102445483208D-07  .200000000000D+01
     .565206000000D+06  .000000000000D+00                                      
